NORAD_CAT_ID,OBJECT_NAME,OBJECT_TYPE,EPOCH,MEAN_MOTION,ECCENTRICITY,INCLINATION,RA_OF_ASC_NODE,ARG_OF_PERICENTER,MEAN_ANOMALY,BSTAR,MEAN_MOTION_DOT,MEAN_MOTION_DDOT,TLE_LINE0,TLE_LINE1,TLE_LINE2,SEMIMAJOR_AXIS,PERIOD,APOGEE,PERIGEE,DECAYED
52091.0,STARLINK-3713,PAYLOAD,2022-07-25 14:00:01,15.08823017,0.000177,53.2147,268.7705,46.2153,175.4998,0.0024339,0.00038642,0.0,0 STARLINK-3713,1 52091U 22029D   22206.58334491  .00038642  00000-0  24339-2 0  9997,2 52091  53.2147 268.7705 0001770  46.2153 175.4998 15.08823017  1304,6917.932,95.439,541.0219999999998,538.573,0.0
52091.0,STARLINK-3713,PAYLOAD,2022-07-25 22:00:00,15.08847013,0.0001601,53.2144,267.2725,50.2167,183.0926,-0.00035063,-5.865e-05,0.0,0 STARLINK-3713,1 52091U 22029D   22206.91667824 -.00005865  00000-0 -35063-3 0  9993,2 52091  53.2144 267.2725 0001601  50.2167 183.0926 15.08847013  1308,6917.859,95.437,540.832,538.616,0.0
52091.0,STARLINK-3713,PAYLOAD,2022-07-26 06:00:00,15.08860513,0.0001595999999999,53.2143,265.7764,53.6509,191.2523,-0.0010006,-0.00016186,0.0,0 STARLINK-3713,1 52091U 22029D   22207.25001157 -.00016186  00000-0 -10006-2 0  9999,2 52091  53.2143 265.7764 0001596  53.6509 191.2523 15.08860513 21006,6917.818,95.436,540.7869999999998,538.5790000000002,0.0
52091.0,STARLINK-3713,PAYLOAD,2022-07-26 14:00:01,15.08839561,0.0001726,53.2139,264.2815,45.5994,210.9214,-0.00038421,-6.398e-05,0.0,0 STARLINK-3713,1 52091U 22029D   22207.58334491 -.00006398  00000-0 -38421-3 0  9991,2 52091  53.2139 264.2815 0001726  45.5994 210.9214 15.08839561  1301,6917.882,95.438,540.941,538.553,0.0
52091.0,STARLINK-3713,PAYLOAD,2022-07-26 22:00:00,15.08819973,0.0001529,53.2137,262.7834,48.0746,220.0441,0.00011075,1.474e-05,0.0,0 STARLINK-3713,1 52091U 22029D   22207.91667824  .00001474  00000-0  11075-3 0  9991,2 52091  53.2137 262.7834 0001529  48.0746 220.0441 15.08819973  1306,6917.941999999999,95.439,540.864,538.749,0.0
52091.0,STARLINK-3713,PAYLOAD,2022-07-27 06:00:02,15.08842958,0.0001556,53.2135,261.2873,51.11600000000001,228.6373,-0.0011789,-0.00019003,0.0,0 STARLINK-3713,1 52091U 22029D   22208.25002315 -.00019003  00000-0 -11789-2 0  9997,2 52091  53.2135 261.2873 0001556  51.1160 228.6373 15.08842958 21158,6917.871,95.437,540.813,538.66,0.0
52091.0,STARLINK-3713,PAYLOAD,2022-07-27 14:00:01,15.08807867,0.0001726,53.2132,259.7924,44.0397,247.2438,0.0027364,0.00043493,0.0,0 STARLINK-3713,1 52091U 22029D   22208.58334491  .00043493  00000-0  27364-2 0  9990,2 52091  53.2132 259.7924 0001726  44.0397 247.2438 15.08807867  1300,6917.979,95.44,541.038,538.65,0.0
52091.0,STARLINK-3713,PAYLOAD,2022-07-27 22:00:00,15.08825008,0.000158,53.2131,258.2942,47.9767,254.8896,0.00077093,0.00011998,0.0,0 STARLINK-3713,1 52091U 22029D   22208.91667824  .00011998  00000-0  77093-3 0  9996,2 52091  53.2131 258.2942 0001580  47.9767 254.8896 15.08825008  1303,6917.926,95.439,540.884,538.698,0.0
52091.0,STARLINK-3713,PAYLOAD,2022-07-28 06:00:00,15.08850751,0.0001635,53.2131,256.7981,49.9364,264.5052,-0.001455,-0.00023377,0.0,0 STARLINK-3713,1 52091U 22029D   22209.25001157 -.00023377  00000-0 -14550-2 0  9999,2 52091  53.2131 256.7981 0001635  49.9364 264.5052 15.08850751 21302,6917.848000000001,95.437,540.844,538.581,0.0
52091.0,STARLINK-3713,PAYLOAD,2022-07-28 14:00:01,15.08816572,0.0001798,53.2128,255.303,43.5019,282.5419,0.0027234,0.00043294,0.0,0 STARLINK-3713,1 52091U 22029D   22209.58334491  .00043294  00000-0  27234-2 0  9996,2 52091  53.2128 255.3030 0001798  43.5019 282.5419 15.08816572  1303,6917.9519999999975,95.439,541.061,538.573,0.0
52091.0,STARLINK-3713,PAYLOAD,2022-07-28 22:00:00,15.08828082,0.0001651,53.2141,253.8047,47.75,289.8878,0.0013003,0.0002045999999999,0.0,0 STARLINK-3713,1 52091U 22029D   22209.91667824  .00020460  00000-0  13003-2 0  9991,2 52091  53.2141 253.8047 0001651  47.7500 289.8878 15.08828082 21409,6917.917,95.438,540.924,538.64,0.0
52091.0,STARLINK-3713,PAYLOAD,2022-07-29 14:00:01,15.08825736,0.0001882,53.2148,250.8135,43.0832,317.7479,0.0024801,0.00039389,0.0,0 STARLINK-3713,1 52091U 22029D   22210.58334491  .00039389  00000-0  24801-2 0  9995,2 52091  53.2148 250.8135 0001882  43.0832 317.7479 15.08825736  1313,6917.924,95.438,541.091,538.487,0.0
52091.0,STARLINK-3713,PAYLOAD,2022-07-29 22:00:00,15.08827515,0.0001710999999999,53.215,249.3152,47.9143,324.5145,0.0017311,0.00027361,0.0,0 STARLINK-3713,1 52091U 22029D   22210.91667824  .00027361  00000-0  17311-2 0  9996,2 52091  53.2150 249.3152 0001711  47.9143 324.5145 15.08827515 21569,6917.919,95.438,540.967,538.6,0.0
52091.0,STARLINK-3713,PAYLOAD,2022-07-30 14:00:01,15.08805962,0.0001865,53.215,246.324,40.4256,355.2032,0.0021669,0.00034335,0.0,0 STARLINK-3713,1 52091U 22029D   22211.58334491  .00034335  00000-0  21669-2 0  9991,2 52091  53.2150 246.3240 0001865  40.4256 355.2032 15.08805962 21666,6917.984,95.44,541.14,538.559,0.0
52091.0,STARLINK-3713,PAYLOAD,2022-07-30 22:00:00,15.08804488,0.0001679,53.2152,244.8257,45.7814,1.4259,0.0021295,0.00033733,0.0,0 STARLINK-3713,1 52091U 22029D   22211.91667824  .00033733  00000-0  21295-2 0  9993,2 52091  53.2152 244.8257 0001679  45.7814   1.4259 15.08804488  1302,6917.989000000001,95.44,541.015,538.692,0.0
52091.0,STARLINK-3713,PAYLOAD,2022-07-31 06:00:02,15.08844177,0.0001796,53.2154,243.3301,45.7246,13.1096,-0.002026,-0.00032391,0.0,0 STARLINK-3713,1 52091U 22029D   22212.25002315 -.00032391  00000-0 -20260-2 0  9991,2 52091  53.2154 243.3301 0001796  45.7246  13.1096 15.08844177 21767,6917.868,95.437,540.975,538.49,0.0
52091.0,STARLINK-3713,PAYLOAD,2022-07-31 14:00:01,15.08815269,0.0001908,53.2151,241.8345,40.6536,29.7039,0.0017184,0.00027148,0.0,0 STARLINK-3713,1 52091U 22029D   22212.58334491  .00027148  00000-0  17184-2 0  9993,2 52091  53.2151 241.8345 0001908  40.6536  29.7039 15.08815269  1304,6917.956,95.439,541.141,538.501,0.0
52091.0,STARLINK-3713,PAYLOAD,2022-07-31 22:00:00,15.08807934,0.0001698,53.2154,240.3364,46.3055,35.6388,0.0023326999999999,0.00037,0.0,0 STARLINK-3713,1 52091U 22029D   22212.91667824  .00037000  00000-0  23327-2 0  9993,2 52091  53.2154 240.3364 0001698  46.3055  35.6388 15.08807934 21863,6917.978,95.44,541.018,538.669,0.0
52091.0,STARLINK-3713,PAYLOAD,2022-08-01 14:00:01,15.08823732,0.0001923,53.2151,237.3451,41.2577,63.8467,0.0012334,0.00019387,0.0,0 STARLINK-3713,1 52091U 22029D   22213.58334491  .00019387  00000-0  12334-2 0  9992,2 52091  53.2151 237.3451 0001923  41.2577  63.8467 15.08823732  1309,6917.93,95.439,541.125,538.465,0.0
52091.0,STARLINK-3713,PAYLOAD,2022-08-01 22:00:00,15.08811257,0.000171,53.2153,235.847,47.2425,69.4538,0.0023886999999999,0.00037903,0.0,0 STARLINK-3713,1 52091U 22029D   22213.91667824  .00037903  00000-0  23887-2 0  9997,2 52091  53.2153 235.8470 0001710  47.2425  69.4538 15.08811257  1307,6917.968000000003,95.439,541.016,538.65,0.0
52091.0,STARLINK-3713,PAYLOAD,2022-08-02 14:00:01,15.08830304,0.0001938,53.215,232.8558,42.7676,97.0947,0.00063281,9.795e-05,0.0,0 STARLINK-3713,1 52091U 22029D   22214.58334491  .00009795  00000-0  63281-3 0  9993,2 52091  53.2150 232.8558 0001938  42.7676  97.0947 15.08830304  1303,6917.91,95.438,541.116,538.434,0.0
52091.0,STARLINK-3713,PAYLOAD,2022-08-03 12:00:00,15.08815246,0.0001976,53.215,228.7411,44.1084,37.6288,0.0024963,0.00039638,0.0,0 STARLINK-3713,1 52091U 22029D   22215.50001157  .00039638  00000-0  24963-2 0  9998,2 52091  53.2150 228.7411 0001976  44.1084  37.6288 15.08815246 22259,6917.956,95.439,541.188,538.4540000000002,0.0
52091.0,STARLINK-3713,PAYLOAD,2022-08-03 14:00:01,15.08836728,0.0001976999999999,53.2148,228.3665,44.2691,130.3575,2.6582e-05,1.35e-06,0.0,0 STARLINK-3713,1 52091U 22029D   22215.58334491  .00000135  00000-0  26582-4 0  9997,2 52091  53.2148 228.3665 0001977  44.2691 130.3575 15.08836728  1300,6917.89,95.438,541.123,538.388,0.0
52091.0,STARLINK-3713,PAYLOAD,2022-08-03 22:00:01,15.08817326,0.000182,53.2148,226.8685,50.0428,136.2454,0.0022781,0.00036132,0.0,0 STARLINK-3713,1 52091U 22029D   22215.91668981  .00036132  00000-0  22781-2 0  9999,2 52091  53.2148 226.8685 0001820  50.0428 136.2454 15.08817326  1309,6917.95,95.439,541.0740000000002,538.556,0.0
52091.0,STARLINK-3713,PAYLOAD,2022-08-04 06:00:00,15.08847357,0.000198,53.215,225.3735,48.1673,149.6429,-0.0014930999999999,-0.00023978,0.0,0 STARLINK-3713,1 52091U 22029D   22216.25001157 -.00023978  00000-0 -14931-2 0  9997,2 52091  53.2150 225.3735 0001980  48.1673 149.6429 15.08847357 22365,6917.858,95.437,541.0930000000002,538.3530000000002,0.0
52091.0,STARLINK-3713,PAYLOAD,2022-08-04 14:00:01,15.08844583,0.0002043,53.2148,223.8772,45.1668,164.2325,-0.00056443,-9.261e-05,0.0,0 STARLINK-3713,1 52091U 22029D   22216.58334491 -.00009261  00000-0 -56443-3 0  9997,2 52091  53.2148 223.8772 0002043  45.1668 164.2325 15.08844583  1305,6917.866,95.437,541.145,538.318,0.0
52091.0,STARLINK-3713,PAYLOAD,2022-08-04 20:00:01,15.08823199,0.0001899,53.215,222.7536,49.2329,78.8719,0.001666,0.00026314,0.0,0 STARLINK-3713,1 52091U 22029D   22216.83334491  .00026314  00000-0  16660-2 0  9997,2 52091  53.2150 222.7536 0001899  49.2329  78.8719 15.08823199 22457,6917.932,95.439,541.11,538.4830000000002,0.0
52091.0,STARLINK-3713,PAYLOAD,2022-08-04 22:00:00,15.08821049,0.0001919,53.2148,222.3792,50.6417,170.361,0.0022959,0.00036422,0.0,0 STARLINK-3713,1 52091U 22029D   22216.91667824  .00036422  00000-0  22959-2 0  9994,2 52091  53.2148 222.3792 0001919  50.6417 170.3610 15.08821049  1302,6917.938,95.439,541.131,538.476,0.0
52091.0,STARLINK-3713,PAYLOAD,2022-08-05 14:00:01,15.08854048,0.0002133999999999,53.2149,219.3879,45.9387,198.3105,-0.0011253,-0.0001816,0.0,0 STARLINK-3713,1 52091U 22029D   22217.58335648 -.00018160  00000-0 -11253-2 0  9990,2 52091  53.2149 219.3879 0002134  45.9387 198.3105 15.08854048 22563,6917.837,95.437,541.179,538.226,0.0
